FLOCK 2E'-13            
1 41761U 98067KH  17345.88209888  .00042377  00000-0  37712-3 0  9996
2 41761  51.6346 212.8157 0007192 197.4190 162.6561 15.68021850 70709
